IRIDIUM 39              
1 25042U 97069D   25235.93151504  .00000501  00000+0  12568-3 0  9999
2 25042  86.3970 182.1070 0020178  81.3859 278.9630 14.49287536458774
IRIDIUM 38              
1 25043U 97069E   25235.93828369  .00000340  00000+0  10563-3 0  9994
2 25043  86.3982 204.6585 0001220 145.1608 214.9670 14.38163572455690
IRIDIUM 42              
1 25077U 97077A   25235.95808101  .00000330  00000+0  10599-3 0  9992
2 25077  86.3974 210.8990 0001523  94.7396 265.3975 14.36395349450922
IRIDIUM 44              
1 25078U 97077B   25235.93805916  .00000375  00000+0  11205-3 0  9996
2 25078  86.4005 192.6696 0003238 121.8863 238.2652 14.40287691453452
IRIDIUM 45              
1 25104U 97082A   25235.84757877  .00016929  00000+0  56711-3 0  9997
2 25104  86.3601  14.9745 0113450  78.1353 283.2588 15.24706007462346
IRIDIUM 24              
1 25105U 97082B   25235.89317924  .00000414  00000+0  11989-3 0  9998
2 25105  86.3869  51.5595 0010330 204.6136 155.4572 14.42150863452974
IRIDIUM 51              
1 25262U 98018A   25235.85830488  .00027404  00000+0  53338-3 0  9995
2 25262  86.3830  22.2042 0077961 350.0697   9.9012 15.44073489457450
IRIDIUM 57              
1 25273U 98019B   25235.76766281  .00000248  00000+0  78734-4 0  9992
2 25273  86.3955 116.9548 0002073  88.3576 271.7859 14.35930509434481
